2023-072F               
1 56748U 23072F   23165.54494057  .00004997  00000+0  33059-3 0  9990
2 56748  97.5312 352.4556 0009032 235.2278 124.8100 15.07772156  3035
2023-072G               
1 56749U 23072G   23165.54298542  .00006004  00000+0  39455-3 0  9999
2 56749  97.5321 352.4599 0009430 238.2953 121.7356 15.07934870  3030
2023-072H               
1 56750U 23072H   23164.59373674  .00003995  00000+0  21877-3 0  9990
2 56750  97.5383 351.7362 0011281 242.2944 117.7144 15.14754056  2901
AXIOM-2 DEB             
1 56751U 23070B   23155.18545233  .00137659  00000+0  93325-3 0  9998
2 56751  51.4359  32.6116 0064812 169.8500 272.9083 15.71117998   653
ELECTRON KICK STAGE R/B 
1 56752U 23073A   23165.19257267  .00009069  00000+0  58968-3 0  9998
2 56752  32.7362  86.8952 0011916  32.7466 327.3940 15.06918460  2879
TROPICS-03              
1 56753U 23073B   23165.12893014  .00007014  00000+0  45902-3 0  9990
2 56753  32.7364  87.3387 0010347  43.4389 316.7094 15.06663349  2842
TROPICS-07              
1 56754U 23073C   23165.11498597  .00008309  00000+0  52708-3 0  9997
2 56754  32.7367  87.2219 0014883  35.7565 324.4098 15.07780012  2868
ELECTRON R/B            
1 56755U 23073D   23164.18380815  .00004645  00000+0  29432-3 0  9994
2 56755  35.4639  97.4969 0024739 339.9216  20.0528 15.08251166  2725
COSMOS 2569             
1 56756U 23074A   23165.52451965  .00004490  00000+0  21947-3 0  9991
2 56756  97.4382   0.0186 0001548  87.6969 272.4443 15.18737417  2835
ARABSAT-7B (BADR-8)     
1 56757U 23075A   23165.10718156 -.00000068  00000+0  16551+0 0  9994
2 56757  19.7003 144.9575 7822763 190.3143 129.2329  1.05567454   200
FALCON 9 R/B            
1 56758U 23075B   23165.00906583 -.00000004  00000+0  67847-3 0  9995
2 56758  27.8466 145.0301 8176609 184.9520 151.9970  1.20342911   203
IRNSS-1J (NVS-01)       
1 56759U 23076A   23164.73184111 -.00000332  00000+0  00000+0 0  9999
2 56759   4.9464 273.6459 0004317 359.3633  21.7637  1.00272307    91
GSLV R/B                
1 56760U 23076B   23165.18852120  .00117246  92437-6  41430-2 0  9992
2 56760  19.1972 263.8257 7505214 188.6290 141.1081  2.04272268   331
SHENZHOU-16 (SZ-16)     
1 56761U 23077A   23165.47621725  .00014168  00000+0  17363-3 0  9997
2 56761  41.4730 172.3474 0002054 348.3740  11.7051 15.60067091121413
STARLINK-6197           
1 56767U 23078A   23165.58334491 -.00939910  00000+0 -69217-2 0  9994
2 56767  70.0035  13.1224 0003516 265.9946  97.5720 15.75362238  1303
STARLINK-6198           
1 56768U 23078B   23165.58334491 -.00936270  00000+0 -68770-2 0  9994
2 56768  70.0058  13.1222 0003558 266.4474  99.5832 15.75410871  1308
STARLINK-5978           
1 56769U 23078C   23165.58334491 -.00937562  00000+0 -68967-2 0  9998
2 56769  70.0049  13.1223 0003516 267.8019  96.7507 15.75381235  1303
STARLINK-6342           
1 56770U 23078D   23165.58334491 -.00937945  00000+0 -69029-2 0  9995
2 56770  70.0050  13.1237 0003491 267.6689  96.3914 15.75371449  1309
STARLINK-6339           
1 56771U 23078E   23165.58334491 -.00938047  00000+0 -68886-2 0  9990
2 56771  70.0035  13.1189 0003515 268.0369  98.5013 15.75421083  1300
STARLINK-6275           
1 56772U 23078F   23165.58334491 -.00937970  00000+0 -68969-2 0  9997
2 56772  70.0045  13.1221 0003543 266.9060  98.1421 15.75391243  1308
STARLINK-6296           
1 56773U 23078G   23165.58334491 -.00935895  00000+0 -68682-2 0  9994
2 56773  70.0034  13.1180 0003556 266.1112 100.9157 15.75429850  1309
STARLINK-6190           
1 56774U 23078H   23165.58334491 -.00937164  00000+0 -68872-2 0  9997
2 56774  70.0042  13.1209 0003546 266.1397  99.3963 15.75401441  1307
STARLINK-6292           
1 56775U 23078J   23165.58334491 -.00940178  00000+0 -68872-2 0  9997
2 56775  70.0034  13.1152 0003481 268.9042 100.5930 15.75483651  1303
STARLINK-6274           
1 56776U 23078K   23165.58334491 -.00936231  00000+0 -68677-2 0  9996
2 56776  70.0043  13.1188 0003543 267.7182  99.7977 15.75440781  1301
STARLINK-5582           
1 56777U 23078L   23165.58334491 -.00940031  00000+0 -68768-2 0  9991
2 56777  70.0030  13.1130 0003469 267.7963 103.1767 15.75514205  1309
STARLINK-6304           
1 56778U 23078M   23165.58334491 -.00939058  00000+0 -68873-2 0  9996
2 56778  70.0050  13.1187 0003505 266.0289 101.9853 15.75452841  1307
STARLINK-6231           
1 56779U 23078N   23165.58334491 -.00938625  00000+0 -68499-2 0  9990
2 56779  70.0029  13.1099 0003466 266.0702 107.3467 15.75565442  1305
STARLINK-5963           
1 56780U 23078P   23165.58334491 -.00940377  00000+0 -68764-2 0  9994
2 56780  70.0035  13.1132 0003441 267.5975 103.8631 15.75525227  1304
STARLINK-5989           
1 56781U 23078Q   23165.58334491 -.00939591  00000+0 -68456-2 0  9999
2 56781  70.0020  13.1068 0003461 267.8378 107.5484 15.75605809  1301
STARLINK-6352           
1 56782U 23078R   23165.58334491 -.00942462  00000+0 -69118-2 0  9997
2 56782  70.0046  13.1174 0003516 266.3651 102.1498 15.75463582  1303
STARLINK-6357           
1 56783U 23078S   23165.58334491 -.00939256  00000+0 -68767-2 0  9994
2 56783  70.0041  13.1143 0003508 266.5485 103.4394 15.75493148  1303
STARLINK-6354           
1 56784U 23078T   23165.58334491 -.00935811  00000+0 -68555-2 0  9993
2 56784  70.0047  13.1169 0003570 265.8949 103.1123 15.75469524  1302
STARLINK-5931           
1 56785U 23078U   23165.58334491 -.00938819  00000+0 -68456-2 0  9995
2 56785  70.0038  13.1091 0003488 267.2292 107.1771 15.75584673  1308
STARLINK-6341           
1 56786U 23078V   23165.58334491 -.00939430  00000+0 -68749-2 0  9991
2 56786  70.0051  13.1153 0003478 267.8188 102.6577 15.75504202  1306
STARLINK-6326           
1 56787U 23078W   23165.58334491 -.00941148  00000+0 -68731-2 0  9992
2 56787  70.0034  13.1102 0003529 267.0247 105.8992 15.75555734  1309
STARLINK-6336           
1 56788U 23078X   23165.58334491 -.00936162  00000+0 -68393-2 0  9997
2 56788  70.0044  13.1128 0003660 267.1040 104.8418 15.75531618  1304
STARLINK-6325           
1 56789U 23078Y   23165.58334491 -.00942348  00000+0 -68522-2 0  9995
2 56789  70.0039  13.1049 0003497 266.4661 111.3648 15.75657609  1307
STARLINK-6345           
1 56790U 23078Z   23165.58334491 -.00939285  00000+0 -68613-2 0  9994
2 56790  70.0039  13.1119 0003498 266.1244 106.3112 15.75545048  1305
STARLINK-5977           
1 56791U 23078AA  23165.58334491 -.00938241  00000+0 -68285-2 0  9991
2 56791  70.0026  13.1056 0003528 266.3657 109.9909 15.75625389  1306
STARLINK-6046           
1 56792U 23078AB  23165.58334491 -.00936981  00000+0 -68337-2 0  9999
2 56792  70.0025  13.1089 0003524 266.7003 107.2022 15.75574125  1305
STARLINK-6052           
1 56793U 23078AC  23165.58334491 -.00936094  00000+0 -67875-2 0  9991
2 56793  70.0032  13.1012 0003518 267.7695 112.5071 15.75704371  1302
STARLINK-6060           
1 56794U 23078AD  23165.58334491 -.00939359  00000+0 -68405-2 0  9999
2 56794  70.0045  13.1083 0003502 266.3573 109.5132 15.75616007  1300
STARLINK-6061           
1 56795U 23078AE  23165.58334491 -.00936868  00000+0 -67752-2 0  9996
2 56795  70.0031  13.0974 0003509 268.5243 114.6710 15.75766529  1303
STARLINK-6049           
1 56796U 23078AF  23165.58334491 -.00939565  00000+0 -68483-2 0  9996
2 56796  70.0031  13.1080 0003479 267.0666 107.8251 15.75595930  1302
STARLINK-6058           
1 56797U 23078AG  23165.58334491 -.00940806  00000+0 -68309-2 0  9994
2 56797  70.0020  13.1015 0003500 267.2353 112.0634 15.75686803  1302
STARLINK-6068           
1 56798U 23078AH  23165.58334491 -.00941574  00000+0 -68521-2 0  9994
2 56798  70.0032  13.1056 0003512 267.1650 109.6847 15.75636948  1306
STARLINK-5953           
1 56799U 23078AJ  23165.58334491 -.00937446  00000+0 -67648-2 0  9997
2 56799  70.0028  13.0942 0003489 267.3548 118.2804 15.75817211  1309
STARLINK-6036           
1 56800U 23078AK  23165.58334491 -.00938820  00000+0 -68270-2 0  9999
2 56800  70.0033  13.1053 0003512 268.0226 109.3131 15.75646207  1309
STARLINK-6087           
1 56801U 23078AL  23165.58334491 -.00935306  00000+0 -67690-2 0  9991
2 56801  70.0029  13.0986 0003524 267.8165 114.4048 15.75744961  1301
STARLINK-6070           
1 56802U 23078AM  23165.58334491 -.00938752  00000+0 -68173-2 0  9997
2 56802  70.0028  13.1031 0003543 267.1305 111.6673 15.75676247  1307
STARLINK-6029           
1 56803U 23078AN  23165.58334491 -.00938111  00000+0 -67972-2 0  9993
2 56803  70.0027  13.0995 0003536 266.4132 114.8304 15.75726094  1309
STARLINK-6069           
1 56804U 23078AP  23165.58334491 -.00937680  00000+0 -68118-2 0  9997
2 56804  70.0036  13.1040 0003509 267.8324 110.4788 15.75666132  1304
STARLINK-6064           
1 56805U 23078AQ  23165.58334491 -.00936809  00000+0 -67898-2 0  9994
2 56805  70.0026  13.0997 0003542 266.0858 114.6722 15.75715643  1300
STARLINK-6072           
1 56806U 23078AR  23165.58334491 -.00935521  00000+0 -67858-2 0  9991
2 56806  70.0031  13.1021 0003535 266.2514 113.5298 15.75694373  1301
STARLINK-6073           
1 56807U 23078AS  23165.58334491 -.00937641  00000+0 -67688-2 0  9998
2 56807  70.0027  13.0947 0003508 268.4019 116.7295 15.75808806  1307
STARLINK-6042           
1 56808U 23078AT  23165.58334491 -.00936809  00000+0 -67654-2 0  9997
2 56808  70.0026  13.0958 0003512 267.9392 116.7071 15.75797732  1309
STARLINK-6040           
1 56809U 23078AU  23165.58334491 -.00934172  00000+0 -67477-2 0  9992
2 56809  70.0017  13.0949 0003557 267.5017 116.6568 15.75785370  1304
STARLINK-6031           
1 56810U 23078AV  23165.58334491 -.00933930  00000+0 -67610-2 0  9994
2 56810  70.0034  13.0999 0003566 267.0931 114.6343 15.75734067  1306
STARLINK-6063           
1 56811U 23078AW  23165.58334491 -.00935726  00000+0 -67451-2 0  9993
2 56811  70.0022  13.0924 0003503 267.4734 119.1269 15.75836787  1307
